NORAD_CAT_ID,OBJECT_NAME,OBJECT_TYPE,EPOCH,MEAN_MOTION,ECCENTRICITY,INCLINATION,RA_OF_ASC_NODE,ARG_OF_PERICENTER,MEAN_ANOMALY,BSTAR,MEAN_MOTION_DOT,MEAN_MOTION_DDOT,TLE_LINE0,TLE_LINE1,TLE_LINE2,SEMIMAJOR_AXIS,PERIOD,APOGEE,PERIGEE,DECAYED
53803.0,STARLINK-4727,PAYLOAD,2023-06-20 00:08:36,15.088417,0.0001069,53.218,29.9846,97.6317,262.4796,0.00020178,2.925e-05,0.0,0 STARLINK-4727,1 53803U 22111AG  23171.00597915  .00002925  00000-0  20178-3 0  9995,2 53803  53.2180  29.9846 0001069  97.6317 262.4796 15.08841700 44016,6917.875,95.437,540.48,539.001,0.0
53803.0,STARLINK-4727,PAYLOAD,2023-06-20 17:37:51,15.08842912,0.0001112,53.2172,26.7131,96.7185,263.3933,4.4367e-05,4.18e-06,0.0,0 STARLINK-4727,1 53803U 22111AG  23171.73462214  .00000418  00000-0  44367-4 0  9990,2 53803  53.2172  26.7131 0001112  96.7185 263.3933 15.08842912 43312,6917.871,95.437,540.506,538.967,0.0
53803.0,STARLINK-4727,PAYLOAD,2023-06-20 20:48:37,15.08848473,0.0001023,53.2179,26.118,103.8621,256.2485,3.115e-05,2.08e-06,0.0,0 STARLINK-4727,1 53803U 22111AG  23171.86709811  .00000208  00000-0  31150-4 0  9994,2 53803  53.2179  26.1180 0001023 103.8621 256.2485 15.08848473 44146,6917.854,95.437,540.427,539.012,0.0
53803.0,STARLINK-4727,PAYLOAD,2023-06-21 20:39:24,15.08846008,0.0001059,53.218,21.658,88.988,271.1233,1.7644e-05,-7e-08,0.0,0 STARLINK-4727,1 53803U 22111AG  23172.86069803 -.00000007  00000-0  17644-4 0  9995,2 53803  53.2180  21.6580 0001059  88.9880 271.1233 15.08846008 44296,6917.862,95.437,540.46,538.994,0.0
53803.0,STARLINK-4727,PAYLOAD,2023-06-21 23:50:10,15.08851055,0.0001091,53.2179,21.0634,87.5507,272.561,-1.6053e-05,-5.43e-06,0.0,0 STARLINK-4727,1 53803U 22111AG  23172.99317596 -.00000543  00000-0 -16053-4 0  9993,2 53803  53.2179  21.0634 0001091  87.5507 272.5610 15.08851055 43500,6917.847,95.437,540.466,538.957,0.0
53803.0,STARLINK-4727,PAYLOAD,2023-06-22 18:54:48,15.08839884,0.0001067,53.2178,17.4947,87.3143,272.7972,3.9299e-05,3.38e-06,0.0,0 STARLINK-4727,1 53803U 22111AG  23173.78806177  .00000338  00000-0  39299-4 0  9996,2 53803  53.2178  17.4947 0001067  87.3143 272.7972 15.08839884 43624,6917.881,95.438,540.484,539.008,0.0
53803.0,STARLINK-4727,PAYLOAD,2023-06-23 23:31:44,15.08844773,9.52e-05,53.2179,12.1425,88.5518,271.5583,6.6418e-05,7.7e-06,0.0,0 STARLINK-4727,1 53803U 22111AG  23174.98037857  .00000770  00000-0  66418-4 0  9993,2 53803  53.2179  12.1425 0000952  88.5518 271.5583 15.08844773 43807,6917.866,95.437,540.389,539.072,0.0
53803.0,STARLINK-4727,PAYLOAD,2023-06-24 17:01:00,15.08834328,9.41e-05,53.2181,8.8717,93.8122,266.2978,-4.6175e-05,-1.022e-05,0.0,0 STARLINK-4727,1 53803U 22111AG  23175.70903012 -.00001022  00000-0 -46175-4 0  9990,2 53803  53.2181   8.8717 0000941  93.8122 266.2978 15.08834328 43910,6917.898,95.438,540.414,539.112,0.0
53803.0,STARLINK-4727,PAYLOAD,2023-06-24 20:11:45,15.08841368,0.0001037,53.2176,8.2788,106.9982,253.1124,4.1347e-06,-2.22e-06,0.0,0 STARLINK-4727,1 53803U 22111AG  23175.84150420 -.00000222  00000-0  41347-5 0  9999,2 53803  53.2176   8.2788 0001037 106.9982 253.1124 15.08841368 43935,6917.876,95.437,540.459,539.024,0.0
53803.0,STARLINK-4727,PAYLOAD,2023-06-25 21:37:56,15.08844222,9.87e-05,53.218,3.5199,93.3419,266.7686,3.7129e-05,3.03e-06,0.0,0 STARLINK-4727,1 53803U 22111AG  23176.90134456  .00000303  00000-0  37129-4 0  9999,2 53803  53.2180   3.5199 0000987  93.3419 266.7686 15.08844222 44094,6917.867,95.437,540.415,539.05,0.0
53803.0,STARLINK-4727,PAYLOAD,2023-06-26 16:42:34,15.08836277,0.0001064,53.2178,359.9512,90.2696,269.8418,0.00010023,1.308e-05,0.0,0 STARLINK-4727,1 53803U 22111AG  23177.69622916  .00001308  00000-0  10023-3 0  9998,2 53803  53.2178 359.9512 0001064  90.2696 269.8418 15.08836277 44210,6917.892,95.438,540.493,539.021,0.0
53803.0,STARLINK-4727,PAYLOAD,2023-06-27 18:08:43,15.08844764,8.17e-05,53.2172,355.1933,64.8428,295.2649,9.4293e-05,1.213e-05,0.0,0 STARLINK-4727,1 53803U 22111AG  23178.75606418  .00001213  00000-0  94293-4 0  9992,2 53803  53.2172 355.1933 0000817  64.8428 295.2649 15.08844764 44370,6917.866,95.437,540.296,539.166,0.0
53803.0,STARLINK-4727,PAYLOAD,2023-06-27 22:54:52,15.08850776,0.0001008,53.2174,354.3011,85.6891,274.4216,0.00013768,1.905e-05,0.0,0 STARLINK-4727,1 53803U 22111AG  23178.95477853  .00001905  00000-0  13768-3 0  9998,2 53803  53.2174 354.3011 0001008  85.6891 274.4216 15.08850776 44401,6917.847,95.437,540.41,539.015,0.0
53803.0,STARLINK-4727,PAYLOAD,2023-06-28 05:16:26,15.08837081,9.06e-05,53.2186,353.113,88.4602,271.6494,2.5877e-05,1.24e-06,0.0,0 STARLINK-4727,1 53803U 22111AG  23179.21974929  .00000124  00000-0  25877-4 0  9991,2 53803  53.2186 353.1130 0000906  88.4602 271.6494 15.08837081 44445,6917.889,95.438,540.381,539.128,0.0
53803.0,STARLINK-4727,PAYLOAD,2023-06-28 22:45:40,15.08845905,0.0001002,53.2184,349.8407,95.1793,264.9314,8.7743e-05,1.109e-05,0.0,0 STARLINK-4727,1 53803U 22111AG  23179.94838329  .00001109  00000-0  87743-4 0  9998,2 53803  53.2184 349.8407 0001002  95.1793 264.9314 15.08845905 44558,6917.862,95.437,540.421,539.034,0.0
53803.0,STARLINK-4727,PAYLOAD,2023-06-29 16:14:55,15.08835667,0.0001257,53.2194,346.5667,102.6277,257.4856,-2.248e-05,-6.46e-06,0.0,0 STARLINK-4727,1 53803U 22111AG  23180.67703299 -.00000646  00000-0 -22480-4 0  9991,2 53803  53.2194 346.5667 0001257 102.6277 257.4856 15.08835667 44668,6917.894,95.438,540.628,538.889,0.0
53803.0,STARLINK-4727,PAYLOAD,2023-06-30 16:05:42,15.08835411,0.0001045,53.2183,342.1088,90.7993,269.3119,5.1844e-05,5.37e-06,0.0,0 STARLINK-4727,1 53803U 22111AG  23181.67063241  .00000537  00000-0  51844-4 0  9991,2 53803  53.2183 342.1088 0001045  90.7993 269.3119 15.08835411 44810,6917.894,95.438,540.482,539.036,0.0
53803.0,STARLINK-4727,PAYLOAD,2023-07-01 17:31:52,15.08838497,9.17e-05,53.2176,337.3528,81.6962,278.4134,3.4782e-05,2.66e-06,0.0,0 STARLINK-4727,1 53803U 22111AG  23182.73047402  .00000266  00000-0  34782-4 0  9991,2 53803  53.2176 337.3528 0000917  81.6962 278.4134 15.08838497 44971,6917.885,95.438,540.384,539.116,0.0
53803.0,STARLINK-4727,PAYLOAD,2023-07-02 18:58:02,15.08845006,0.0001095,53.2179,332.5936,98.6836,261.428,0.00011964,1.617e-05,0.0,0 STARLINK-4727,1 53803U 22111AG  23183.79030850  .00001617  00000-0  11964-3 0  9994,2 53803  53.2179 332.5936 0001095  98.6836 261.4280 15.08845006 45137,6917.865,95.437,540.488,538.973,0.0
53803.0,STARLINK-4727,PAYLOAD,2023-07-03 04:30:21,15.08838959,0.0001097,53.2186,330.812,93.0661,267.0456,7.7553e-05,9.47e-06,0.0,0 STARLINK-4727,1 53803U 22111AG  23184.18775382  .00000947  00000-0  77553-4 0  9996,2 53803  53.2186 330.8120 0001097  93.0661 267.0456 15.08838959 45190,6917.884,95.438,540.507,538.99,0.0
53803.0,STARLINK-4727,PAYLOAD,2023-07-04 17:04:13,15.08845972,9.54e-05,53.2177,323.9712,89.6829,270.4272,2.5411e-05,1.17e-06,0.0,0 STARLINK-4727,1 53803U 22111AG  23185.71126949  .00000117  00000-0  25411-4 0  9990,2 53803  53.2177 323.9712 0000954  89.6829 270.4272 15.08845972 45421,6917.862,95.437,540.387,539.067,0.0
53803.0,STARLINK-4727,PAYLOAD,2023-07-05 16:55:00,15.08842442,9.57e-05,53.2174,319.5088,93.9889,266.1213,-1.7585e-05,-5.68e-06,0.0,0 STARLINK-4727,1 53803U 22111AG  23186.70487206 -.00000568  00000-0 -17585-4 0  9991,2 53803  53.2174 319.5088 0000957  93.9889 266.1213 15.08842442 45574,6917.873,95.437,540.4,539.076,0.0
53803.0,STARLINK-4727,PAYLOAD,2023-07-06 08:48:52,15.08835644,9.34e-05,53.2173,316.5353,84.7732,275.3367,1.1777e-05,-1e-06,0.0,0 STARLINK-4727,1 53803U 22111AG  23187.36727662 -.00000100  00000-0  11777-4 0  9995,2 53803  53.2173 316.5353 0000934  84.7732 275.3367 15.08835644 45674,6917.894,95.438,540.405,539.113,0.0
53803.0,STARLINK-4727,PAYLOAD,2023-07-06 18:21:11,15.0884015,9.63e-05,53.2174,314.7521,97.9292,262.1809,6.4472e-05,7.38e-06,0.0,0 STARLINK-4727,1 53803U 22111AG  23187.76471239  .00000738  00000-0  64472-4 0  9991,2 53803  53.2174 314.7521 0000963  97.9292 262.1809 15.08840150 45731,6917.88,95.438,540.411,539.079,0.0
53803.0,STARLINK-4727,PAYLOAD,2023-07-08 16:27:22,15.0884253,9.76e-05,53.2181,306.1287,88.123,271.9874,7.2526e-05,8.67e-06,0.0,0 STARLINK-4727,1 53803U 22111AG  23189.68567308  .00000867  00000-0  72526-4 0  9999,2 53803  53.2181 306.1287 0000976  88.1230 271.9874 15.08842530 46028,6917.873,95.437,540.413,539.062,0.0
53803.0,STARLINK-4727,PAYLOAD,2023-07-09 13:07:24,15.08829025,0.0001064,53.219,302.2639,90.7528,269.3586,-8.2681e-05,-1.603e-05,0.0,0 STARLINK-4727,1 53803U 22111AG  23190.54680877 -.00001603  00000-0 -82681-4 0  9997,2 53803  53.2190 302.2639 0001064  90.7528 269.3586 15.08829025 46153,6917.914,95.438,540.515,539.043,0.0
53803.0,STARLINK-4727,PAYLOAD,2023-07-10 16:08:56,15.08849058,0.0001021,53.2184,297.2091,89.7773,270.3336,9.9529e-05,1.297e-05,0.0,0 STARLINK-4727,1 53803U 22111AG  23191.67287318  .00001297  00000-0  99529-4 0  9991,2 53803  53.2184 297.2091 0001021  89.7773 270.3336 15.08849058 46326,6917.853,95.437,540.424,539.011,0.0
53803.0,STARLINK-4727,PAYLOAD,2023-07-11 00:05:52,15.08840581,9.17e-05,53.2178,295.7201,88.4363,271.6734,4.7381e-05,4.66e-06,0.0,0 STARLINK-4727,1 53803U 22111AG  23192.00407876  .00000466  00000-0  47381-4 0  9998,2 53803  53.2178 295.7201 0000917  88.4363 271.6734 15.08840581 46372,6917.879,95.438,540.378,539.109,0.0
53803.0,STARLINK-4727,PAYLOAD,2023-07-11 08:02:48,15.08832361,0.0001077,53.2182,294.2356,94.3588,265.7527,0.00011906,1.607e-05,0.0,0 STARLINK-4727,1 53803U 22111AG  23192.33528381  .00001607  00000-0  11906-3 0  9990,2 53803  53.2182 294.2356 0001077  94.3588 265.7527 15.08832361 46422,6917.904,95.438,540.514,539.024,0.0
53803.0,STARLINK-4727,PAYLOAD,2023-07-11 23:56:39,15.08841411,0.0001033,53.2177,291.261,88.3936,271.7174,0.00010413,1.37e-05,0.0,0 STARLINK-4727,1 53803U 22111AG  23192.99767996  .00001370  00000-0  10413-3 0  9998,2 53803  53.2177 291.2610 0001033  88.3936 271.7174 15.08841411 46520,6917.876,95.437,540.456,539.026,0.0
